{
"type": "FeatureCollection",
"name": "Station_Hydrologique",
"features": [
{ "type": "Feature", "properties": { "OBJECTID": 1, "indice": 30, "IRE": 77, "IRE_pluvio": 0, "DMS": 1968, "SBV_anci_1": 17, "X": 537814, "Y": 275991, "Type": 0, "Name": "Aguelmam Sidi Ali", "Descript": "Poste Pluviométrique", "BatchDone": 1, "SnapOn": 0, "SnapStatio": 0, "GridID": 11350, "HydroID": 1129, "IsDone": 1, "CompStatus": -919, "DistAway": 0.0, "ACTIONTYPE": 3, "Type_Statt": "Poste Pluviométrique", "Nom1": null, "Name_Ar": "?????? ???? ???", "Nom_Ar": "?????? ???? ???", "Nom_type_a": "?????? ???? ???", "Nom_comp_a": "???? ?????? ???? ???", "Type_ar": "????", "NEAR_FID": 202, "NEAR_DIST": 0.0, "NEAR_X": 537814.2053, "NEAR_Y": 275990.969 }, "geometry": { "type": "Point", "coordinates": [ -4.9932663, 33.0801577 ] } },
{ "type": "Feature", "properties": { "OBJECTID": 2, "indice": 22, "IRE": 585, "IRE_pluvio": 0, "DMS": 1970, "SBV_anci_1": 1240, "X": 557125, "Y": 314650, "Type": 1, "Name": "Ait Khabbach", "Descript": "Station hydrologique", "BatchDone": 0, "SnapOn": 1, "SnapStatio": 1, "GridID": 11352, "HydroID": 1129, "IsDone": 0, "CompStatus": 1, "DistAway": 0.0, "ACTIONTYPE": 3, "Type_Statt": "Station hydrologique", "Nom1": null, "Name_Ar": "??? ????", "Nom_Ar": "??? ????", "Nom_type_a": "??? ????", "Nom_comp_a": "???? ??? ????", "Type_ar": "????", "NEAR_FID": 222, "NEAR_DIST": 0.0, "NEAR_X": 557125.1631, "NEAR_Y": 314650.2455 }, "geometry": { "type": "Point", "coordinates": [ -4.7839253, 33.4279949 ] } },
{ "type": "Feature", "properties": { "OBJECTID": 3, "indice": 15, "IRE": 2847, "IRE_pluvio": 0, "DMS": 1990, "SBV_anci_1": 5400, "X": 566594, "Y": 370446, "Type": 2, "Name": "Bge Allal Al Fassi", "Descript": "Barrage", "BatchDone": 0, "SnapOn": 1, "SnapStatio": 1, "GridID": 11353, "HydroID": 1129, "IsDone": 0, "CompStatus": 1, "DistAway": 0.0, "ACTIONTYPE": 3, "Type_Statt": "Barrage", "Nom1": null, "Name_Ar": "???? ??????", "Nom_Ar": "???? ??????", "Nom_type_a": "?? ???? ??????", "Nom_comp_a": "?? ???? ??????", "Type_ar": "??", "NEAR_FID": 11, "NEAR_DIST": 0.0, "NEAR_X": 566594.2825, "NEAR_Y": 370446.1313 }, "geometry": { "type": "Point", "coordinates": [ -4.6779187, 33.9306525 ] } },
{ "type": "Feature", "properties": { "OBJECTID": 4, "indice": 15, "IRE": 1540, "IRE_pluvio": 0, "DMS": 1961, "SBV_anci_1": 16451, "X": 491791, "Y": 413701, "Type": 1, "Name": "Azibe Soltane", "Descript": "Station hydrologique", "BatchDone": 0, "SnapOn": 1, "SnapStatio": 1, "GridID": 11354, "HydroID": 1129, "IsDone": 0, "CompStatus": 1, "DistAway": 0.0, "ACTIONTYPE": 3, "Type_Statt": "Station hydrologique", "Nom1": null, "Name_Ar": "???? ??????", "Nom_Ar": "???? ??????", "Nom_type_a": "???? ??????", "Nom_comp_a": "???? ???? ??????", "Type_ar": "????", "NEAR_FID": 55, "NEAR_DIST": 0.0, "NEAR_X": 491798.7427, "NEAR_Y": 413700.749 }, "geometry": { "type": "Point", "coordinates": [ -5.4875188, 34.322752 ] } },
{ "type": "Feature", "properties": { "OBJECTID": 5, "indice": 16, "IRE": 702, "IRE_pluvio": 0, "DMS": 1987, "SBV_anci_1": 610, "X": 622583, "Y": 406610, "Type": 1, "Name": "Bab Chhoub", "Descript": "Station hydrologique", "BatchDone": 0, "SnapOn": 1, "SnapStatio": 1, "GridID": 11355, "HydroID": 1129, "IsDone": 0, "CompStatus": 1, "DistAway": 0.0, "ACTIONTYPE": 3, "Type_Statt": "Station hydrologique", "Nom1": null, "Name_Ar": "??? ??????", "Nom_Ar": "??? ??????", "Nom_type_a": "??? ??????", "Nom_comp_a": "???? ??? ??????", "Type_ar": "????", "NEAR_FID": 320, "NEAR_DIST": 0.0, "NEAR_X": 622582.6879, "NEAR_Y": 406609.5373 }, "geometry": { "type": "Point", "coordinates": [ -4.0672394, 34.2517751 ] } },
{ "type": "Feature", "properties": { "OBJECTID": 6, "indice": 16, "IRE": 551, "IRE_pluvio": 0, "DMS": 1971, "SBV_anci_1": 1370, "X": 615804, "Y": 400832, "Type": 1, "Name": "Bab Merzouka", "Descript": "Station hydrologique", "BatchDone": 0, "SnapOn": 1, "SnapStatio": 1, "GridID": 11356, "HydroID": 1129, "IsDone": 0, "CompStatus": 1, "DistAway": 0.0, "ACTIONTYPE": 3, "Type_Statt": "Station hydrologique", "Nom1": null, "Name_Ar": "??? ??????", "Nom_Ar": "??? ??????", "Nom_type_a": "??? ??????", "Nom_comp_a": "???? ??? ??????", "Type_ar": "????", "NEAR_FID": 323, "NEAR_DIST": 0.0, "NEAR_X": 615804.0725, "NEAR_Y": 400831.8793 }, "geometry": { "type": "Point", "coordinates": [ -4.141599, 34.2004401 ] } },
{ "type": "Feature", "properties": { "OBJECTID": 7, "indice": 9, "IRE": 260, "IRE_pluvio": 0, "DMS": 1952, "SBV_anci_1": 1710, "X": 579520, "Y": 440075, "Type": 1, "Name": "Bab Ouender", "Descript": "Station hydrologique", "BatchDone": 0, "SnapOn": 1, "SnapStatio": 1, "GridID": 11357, "HydroID": 1129, "IsDone": 0, "CompStatus": 1, "DistAway": 0.0, "ACTIONTYPE": 3, "Type_Statt": "Station hydrologique", "Nom1": null, "Name_Ar": "??? ?????", "Nom_Ar": "??? ?????", "Nom_type_a": "??? ?????", "Nom_comp_a": "???? ??? ?????", "Type_ar": "????", "NEAR_FID": 61, "NEAR_DIST": 0.0, "NEAR_X": 579519.19, "NEAR_Y": 440075.2042 }, "geometry": { "type": "Point", "coordinates": [ -4.5318242, 34.5575912 ] } },
{ "type": "Feature", "properties": { "OBJECTID": 8, "indice": 0, "IRE": 0, "IRE_pluvio": 1586, "DMS": 1979, "SBV_anci_1": 0, "X": 517759, "Y": 495234, "Type": 0, "Name": "Bab Taza", "Descript": "Poste Pluviométrique", "BatchDone": 1, "SnapOn": 0, "SnapStatio": 0, "GridID": 11358, "HydroID": 1129, "IsDone": 1, "CompStatus": -919, "DistAway": 0.0, "ACTIONTYPE": 3, "Type_Statt": "Poste Pluviométrique", "Nom1": null, "Name_Ar": "??? ????", "Nom_Ar": "??? ????", "Nom_type_a": "??? ????", "Nom_comp_a": "???? ??? ????", "Type_ar": "????", "NEAR_FID": 226, "NEAR_DIST": 13.3249000055, "NEAR_X": 517759.179, "NEAR_Y": 495221.1182 }, "geometry": { "type": "Point", "coordinates": [ -5.2037186, 35.0576472 ] } },
{ "type": "Feature", "properties": { "OBJECTID": 9, "indice": 8, "IRE": 633, "IRE_pluvio": 5255, "DMS": 1966, "SBV_anci_1": 25981, "X": 448205, "Y": 440976, "Type": 1, "Name": "Belksiri", "Descript": "Station hydrologique", "BatchDone": 0, "SnapOn": 1, "SnapStatio": 1, "GridID": 11359, "HydroID": 1129, "IsDone": 0, "CompStatus": 1, "DistAway": 0.0, "ACTIONTYPE": 3, "Type_Statt": "Station hydrologique", "Nom1": null, "Name_Ar": "???????", "Nom_Ar": "???????", "Nom_type_a": "???????", "Nom_comp_a": "???? ???????", "Type_ar": "????", "NEAR_FID": 129, "NEAR_DIST": 0.0, "NEAR_X": 448212.8737, "NEAR_Y": 440976.4176 }, "geometry": { "type": "Point", "coordinates": [ -5.9627952, 34.567449 ] } },
{ "type": "Feature", "properties": { "OBJECTID": 10, "indice": 9, "IRE": 1182, "IRE_pluvio": 5124, "DMS": 1977, "SBV_anci_1": 6190, "X": 518464, "Y": 444222, "Type": 2, "Name": "Bge Al Wahda", "Descript": "Barrage", "BatchDone": 0, "SnapOn": 1, "SnapStatio": 1, "GridID": 11360, "HydroID": 1130, "IsDone": 0, "CompStatus": 1, "DistAway": 0.0, "ACTIONTYPE": 3, "Type_Statt": "Barrage", "Nom1": null, "Name_Ar": "??????", "Nom_Ar": "??????", "Nom_type_a": "?? ??????", "Nom_comp_a": "?? ??????", "Type_ar": "??", "NEAR_FID": 157, "NEAR_DIST": 0.0, "NEAR_X": 518463.7872, "NEAR_Y": 444222.4396 }, "geometry": { "type": "Point", "coordinates": [ -5.197083, 34.5978054 ] } },
{ "type": "Feature", "properties": { "OBJECTID": 11, "indice": 10, "IRE": 296, "IRE_pluvio": 1250, "DMS": 1990, "SBV_anci_1": 560, "X": 610780, "Y": 448734, "Type": 2, "Name": "Bge Asfallou", "Descript": "Barrage", "BatchDone": 0, "SnapOn": 1, "SnapStatio": 1, "GridID": 11361, "HydroID": 1130, "IsDone": 0, "CompStatus": 1, "DistAway": 0.0, "ACTIONTYPE": 3, "Type_Statt": "Barrage", "Nom1": null, "Name_Ar": "?? ??????", "Nom_Ar": "??????", "Nom_type_a": "?? ??????", "Nom_comp_a": "?? ??????", "Type_ar": "??", "NEAR_FID": 173, "NEAR_DIST": 0.0, "NEAR_X": 610779.5115, "NEAR_Y": 448734.1567 }, "geometry": { "type": "Point", "coordinates": [ -4.1900971, 34.6328455 ] } },
{ "type": "Feature", "properties": { "OBJECTID": 12, "indice": 16, "IRE": 898, "IRE_pluvio": 1548, "DMS": 1998, "SBV_anci_1": 124, "X": 598322, "Y": 380079, "Type": 2, "Name": "Bge Bab Louta", "Descript": "Barrage", "BatchDone": 0, "SnapOn": 1, "SnapStatio": 1, "GridID": 11362, "HydroID": 1130, "IsDone": 0, "CompStatus": 1, "DistAway": 0.0, "ACTIONTYPE": 3, "Type_Statt": "Barrage", "Nom1": null, "Name_Ar": "?? ??? ????", "Nom_Ar": "??? ????", "Nom_type_a": "?? ??? ????", "Nom_comp_a": "?? ??? ????", "Type_ar": "??", "NEAR_FID": 179, "NEAR_DIST": 0.0, "NEAR_X": 598321.591, "NEAR_Y": 380078.9142 }, "geometry": { "type": "Point", "coordinates": [ -4.3336189, 34.0150665 ] } },
{ "type": "Feature", "properties": { "OBJECTID": 13, "indice": 9, "IRE": 1699, "IRE_pluvio": 2258, "DMS": 1998, "SBV_anci_1": 478, "X": 575660, "Y": 445903, "Type": 2, "Name": "Bge Bouhouda", "Descript": "Barrage", "BatchDone": 0, "SnapOn": 1, "SnapStatio": 1, "GridID": 11363, "HydroID": 1130, "IsDone": 0, "CompStatus": 1, "DistAway": 0.0, "ACTIONTYPE": 3, "Type_Statt": "Barrage", "Nom1": null, "Name_Ar": "??????", "Nom_Ar": "??????", "Nom_type_a": "?? ??????", "Nom_comp_a": "?? ??????", "Type_ar": "??", "NEAR_FID": 274, "NEAR_DIST": 0.0, "NEAR_X": 575660.4158, "NEAR_Y": 445902.7101 }, "geometry": { "type": "Point", "coordinates": [ -4.5733703, 34.6104098 ] } },
{ "type": "Feature", "properties": { "OBJECTID": 14, "indice": 8, "IRE": 3323, "IRE_pluvio": 1612, "DMS": 1991, "SBV_anci_1": 27000, "X": 406818, "Y": 432501, "Type": 2, "Name": "Bge Garde de Sebou", "Descript": "Barrage", "BatchDone": 0, "SnapOn": 1, "SnapStatio": 1, "GridID": 11364, "HydroID": 1130, "IsDone": 0, "CompStatus": 1, "DistAway": 0.0, "ACTIONTYPE": 3, "Type_Statt": "Barrage", "Nom1": null, "Name_Ar": "?????", "Nom_Ar": "?????", "Nom_type_a": "?? ?????", "Nom_comp_a": "?? ?????", "Type_ar": "??", "NEAR_FID": 363, "NEAR_DIST": 0.0, "NEAR_X": 406817.9323, "NEAR_Y": 432501.2963 }, "geometry": { "type": "Point", "coordinates": [ -6.4130266, 34.4882237 ] } },
{ "type": "Feature", "properties": { "OBJECTID": 15, "indice": 15, "IRE": 1847, "IRE_pluvio": 4250, "DMS": 1974, "SBV_anci_1": 3330, "X": 559816, "Y": 395981, "Type": 2, "Name": "Bge Idriss 1er", "Descript": "Barrage", "BatchDone": 0, "SnapOn": 1, "SnapStatio": 1, "GridID": 11365, "HydroID": 1130, "IsDone": 0, "CompStatus": 1, "DistAway": 0.0, "ACTIONTYPE": 3, "Type_Statt": "Barrage", "Nom1": null, "Name_Ar": "????? ?????", "Nom_Ar": "????? ?????", "Nom_type_a": "?? ????? ?????", "Nom_comp_a": "?? ????? ?????", "Type_ar": "??", "NEAR_FID": 280, "NEAR_DIST": 0.0, "NEAR_X": 559815.6931, "NEAR_Y": 395981.2677 }, "geometry": { "type": "Point", "coordinates": [ -4.7495317, 34.1613199 ] } },
{ "type": "Feature", "properties": { "OBJECTID": 16, "indice": 14, "IRE": 2739, "IRE_pluvio": 3401, "DMS": 1935, "SBV_anci_1": 4500, "X": 452938, "Y": 382633, "Type": 2, "Name": "Bge Kansera", "Descript": "Barrage", "BatchDone": 0, "SnapOn": 1, "SnapStatio": 1, "GridID": 11366, "HydroID": 1130, "IsDone": 0, "CompStatus": 1, "DistAway": 0.0, "ACTIONTYPE": 3, "Type_Statt": "Barrage", "Nom1": null, "Name_Ar": "???????", "Nom_Ar": "???????", "Nom_type_a": "?? ???????", "Nom_comp_a": "?? ???????", "Type_ar": "??", "NEAR_FID": 22, "NEAR_DIST": 0.0, "NEAR_X": 452938.1233, "NEAR_Y": 382632.78 }, "geometry": { "type": "Point", "coordinates": [ -5.9082009, 34.0416041 ] } },
{ "type": "Feature", "properties": { "OBJECTID": 17, "indice": 9, "IRE": 1496, "IRE_pluvio": 6500, "DMS": 1994, "SBV_anci_1": 122, "X": 566901, "Y": 440788, "Type": 2, "Name": "Bge Sahla", "Descript": "Barrage", "BatchDone": 0, "SnapOn": 1, "SnapStatio": 1, "GridID": 11367, "HydroID": 1130, "IsDone": 0, "CompStatus": 1, "DistAway": 0.0, "ACTIONTYPE": 3, "Type_Statt": "Barrage", "Nom1": null, "Name_Ar": "?????", "Nom_Ar": "?????", "Nom_type_a": "?? ?????", "Nom_comp_a": "?? ?????", "Type_ar": "??", "NEAR_FID": 274, "NEAR_DIST": 0.0, "NEAR_X": 566901.3999, "NEAR_Y": 440788.1056 }, "geometry": { "type": "Point", "coordinates": [ -4.6692672, 34.5648897 ] } },
{ "type": "Feature", "properties": { "OBJECTID": 18, "indice": 15, "IRE": 2820, "IRE_pluvio": 6769, "DMS": 1994, "SBV_anci_1": 1010, "X": 507358, "Y": 389729, "Type": 2, "Name": "Bge Sidi Chahed", "Descript": "Barrage", "BatchDone": 0, "SnapOn": 1, "SnapStatio": 1, "GridID": 11368, "HydroID": 1130, "IsDone": 0, "CompStatus": 1, "DistAway": 0.0, "ACTIONTYPE": 3, "Type_Statt": "Barrage", "Nom1": null, "Name_Ar": "???? ??????", "Nom_Ar": "???? ??????", "Nom_type_a": "?? ???? ??????", "Nom_comp_a": "?? ???? ??????", "Type_ar": "??", "NEAR_FID": 249, "NEAR_DIST": 0.0, "NEAR_X": 507358.0388, "NEAR_Y": 389729.3554 }, "geometry": { "type": "Point", "coordinates": [ -5.3186264, 34.1066024 ] } },
{ "type": "Feature", "properties": { "OBJECTID": 19, "indice": 16, "IRE": 672, "IRE_pluvio": 1726, "DMS": 1987, "SBV_anci_1": 253, "X": 631838, "Y": 412782, "Type": 1, "Name": "Bni Haitem", "Descript": "Station hydrologique", "BatchDone": 0, "SnapOn": 1, "SnapStatio": 1, "GridID": 11369, "HydroID": 1130, "IsDone": 0, "CompStatus": 1, "DistAway": 0.0, "ACTIONTYPE": 3, "Type_Statt": "Station hydrologique", "Nom1": null, "Name_Ar": "??? ????", "Nom_Ar": "??? ????", "Nom_type_a": "??? ????", "Nom_comp_a": "???? ??? ????", "Type_ar": "????", "NEAR_FID": 319, "NEAR_DIST": 0.0, "NEAR_X": 631837.5805, "NEAR_Y": 412781.5011 }, "geometry": { "type": "Point", "coordinates": [ -3.9658298, 34.3063158 ] } },
{ "type": "Feature", "properties": { "OBJECTID": 20, "indice": 9, "IRE": 1748, "IRE_pluvio": 2222, "DMS": 2001, "SBV_anci_1": 327, "X": 559894, "Y": 459565, "Type": 1, "Name": "Boufellou", "Descript": "Station hydrologique", "BatchDone": 0, "SnapOn": 1, "SnapStatio": 1, "GridID": 11370, "HydroID": 1131, "IsDone": 0, "CompStatus": 1, "DistAway": 0.0, "ACTIONTYPE": 3, "Type_Statt": "Station hydrologique", "Nom1": null, "Name_Ar": "?????", "Nom_Ar": "?????", "Nom_type_a": "?????", "Nom_comp_a": "???? ?????", "Type_ar": "????", "NEAR_FID": 331, "NEAR_DIST": 0.0, "NEAR_X": 559893.6398, "NEAR_Y": 459565.3994 }, "geometry": { "type": "Point", "coordinates": [ -4.7443525, 34.7345858 ] } },
{ "type": "Feature", "properties": { "OBJECTID": 21, "indice": 10, "IRE": 295, "IRE_pluvio": 1250, "DMS": 1998, "SBV_anci_1": 268, "X": 617590, "Y": 458859, "Type": 1, "Name": "Boured", "Descript": "Station hydrologique", "BatchDone": 0, "SnapOn": 1, "SnapStatio": 1, "GridID": 11371, "HydroID": 1131, "IsDone": 0, "CompStatus": 1, "DistAway": 0.0, "ACTIONTYPE": 3, "Type_Statt": "Station hydrologique", "Nom1": null, "Name_Ar": "????", "Nom_Ar": "????", "Nom_type_a": "????", "Nom_comp_a": "???? ????", "Type_ar": "????", "NEAR_FID": 174, "NEAR_DIST": 0.0, "NEAR_X": 617589.557, "NEAR_Y": 458858.8332 }, "geometry": { "type": "Point", "coordinates": [ -4.1144661, 34.723379 ] } },
{ "type": "Feature", "properties": { "OBJECTID": 22, "indice": 23, "IRE": 1000, "IRE_pluvio": 2778, "DMS": 1982, "SBV_anci_1": 670, "X": 592281, "Y": 352663, "Type": 1, "Name": "Dar El Hamra", "Descript": "Station hydrologique", "BatchDone": 0, "SnapOn": 1, "SnapStatio": 1, "GridID": 11372, "HydroID": 1131, "IsDone": 0, "CompStatus": 1, "DistAway": 0.0, "ACTIONTYPE": 3, "Type_Statt": "Station hydrologique", "Nom1": null, "Name_Ar": "??? ??????", "Nom_Ar": "??? ??????", "Nom_type_a": "??? ??????", "Nom_comp_a": "???? ??? ??????", "Type_ar": "????", "NEAR_FID": 186, "NEAR_DIST": 0.0, "NEAR_X": 592281.4179, "NEAR_Y": 352662.7127 }, "geometry": { "type": "Point", "coordinates": [ -4.4018666, 33.7683702 ] } },
{ "type": "Feature", "properties": { "OBJECTID": 23, "indice": 8, "IRE": 3669, "IRE_pluvio": 3022, "DMS": 2006, "SBV_anci_1": 520, "X": 414154, "Y": 401237, "Type": 1, "Name": "Dar Salem", "Descript": "Station hydrologique", "BatchDone": 0, "SnapOn": 1, "SnapStatio": 1, "GridID": 11373, "HydroID": 1131, "IsDone": 0, "CompStatus": 1, "DistAway": 0.0, "ACTIONTYPE": 3, "Type_Statt": "Station hydrologique", "Nom1": null, "Name_Ar": "??? ????", "Nom_Ar": "??? ????", "Nom_type_a": "??? ????", "Nom_comp_a": "???? ??? ????", "Type_ar": "????", "NEAR_FID": 366, "NEAR_DIST": 0.0, "NEAR_X": 414154.0043, "NEAR_Y": 401237.2171 }, "geometry": { "type": "Point", "coordinates": [ -6.3301162, 34.2069561 ] } },
{ "type": "Feature", "properties": { "OBJECTID": 24, "indice": 0, "IRE": 0, "IRE_pluvio": 0, "DMS": 2014, "SBV_anci_1": 0, "X": 460296, "Y": 327168, "Type": 1, "Name": "El Hammam", "Descript": "Station hydrologique", "BatchDone": 0, "SnapOn": 1, "SnapStatio": 1, "GridID": 11374, "HydroID": 1131, "IsDone": 0, "CompStatus": 1, "DistAway": 0.0, "ACTIONTYPE": 3, "Type_Statt": "Station hydrologique", "Nom1": null, "Name_Ar": "??????", "Nom_Ar": "??????", "Nom_type_a": "??????", "Nom_comp_a": "???? ??????", "Type_ar": "????", "NEAR_FID": 166, "NEAR_DIST": 0.0, "NEAR_X": 460305.854, "NEAR_Y": 327168.3767 }, "geometry": { "type": "Point", "coordinates": [ -5.8259375, 33.541697 ] } },
{ "type": "Feature", "properties": { "OBJECTID": 25, "indice": 4, "IRE": 323, "IRE_pluvio": 4212, "DMS": 1998, "SBV_anci_1": 320, "X": 532172, "Y": 480835, "Type": 1, "Name": "El Malha", "Descript": "Station hydrologique", "BatchDone": 0, "SnapOn": 1, "SnapStatio": 1, "GridID": 11375, "HydroID": 1131, "IsDone": 0, "CompStatus": 1, "DistAway": 0.0, "ACTIONTYPE": 3, "Type_Statt": "Station hydrologique", "Nom1": null, "Name_Ar": "???????", "Nom_Ar": "???????", "Nom_type_a": "???????", "Nom_comp_a": "???? ???????", "Type_ar": "????", "NEAR_FID": 291, "NEAR_DIST": 0.0, "NEAR_X": 532172.0179, "NEAR_Y": 480834.6345 }, "geometry": { "type": "Point", "coordinates": [ -5.0462773, 34.9275168 ] } },
{ "type": "Feature", "properties": { "OBJECTID": 26, "indice": 23, "IRE": 541, "IRE_pluvio": 5824, "DMS": 1984, "SBV_anci_1": 1000, "X": 593199, "Y": 318699, "Type": 1, "Name": "El Mers", "Descript": "Station hydrologique", "BatchDone": 0, "SnapOn": 1, "SnapStatio": 1, "GridID": 11376, "HydroID": 1131, "IsDone": 0, "CompStatus": 1, "DistAway": 0.0, "ACTIONTYPE": 3, "Type_Statt": "Station hydrologique", "Nom1": null, "Name_Ar": "?????", "Nom_Ar": "?????", "Nom_type_a": "?????", "Nom_comp_a": "???? ?????", "Type_ar": "????", "NEAR_FID": 220, "NEAR_DIST": 0.0, "NEAR_X": 593198.5878, "NEAR_Y": 318699.1905 }, "geometry": { "type": "Point", "coordinates": [ -4.3954931, 33.4619867 ] } },
{ "type": "Feature", "properties": { "OBJECTID": 27, "indice": 0, "IRE": 0, "IRE_pluvio": 3817, "DMS": 1971, "SBV_anci_1": 0, "X": 536630, "Y": 381858, "Type": 0, "Name": "Fes(ABHS)", "Descript": "Poste Pluviométrique", "BatchDone": 1, "SnapOn": 0, "SnapStatio": 0, "GridID": 11377, "HydroID": 1131, "IsDone": 1, "CompStatus": -919, "DistAway": 0.0, "ACTIONTYPE": 3, "Type_Statt": "Poste Pluviométrique", "Nom1": null, "Name_Ar": "??? (?? ? ?)", "Nom_Ar": "??? (?? ? ?)", "Nom_type_a": "??? (?? ? ?)", "Nom_comp_a": "???? ??? (?? ? ?)", "Type_ar": "????", "NEAR_FID": 240, "NEAR_DIST": 0.0, "NEAR_X": 536629.5682, "NEAR_Y": 381857.5136 }, "geometry": { "type": "Point", "coordinates": [ -5.0016285, 34.0350097 ] } },
{ "type": "Feature", "properties": { "OBJECTID": 28, "indice": 9, "IRE": 1216, "IRE_pluvio": 3924, "DMS": 1973, "SBV_anci_1": 440, "X": 555352, "Y": 439889, "Type": 1, "Name": "Galaz", "Descript": "Station hydrologique", "BatchDone": 0, "SnapOn": 1, "SnapStatio": 1, "GridID": 11378, "HydroID": 1131, "IsDone": 0, "CompStatus": 1, "DistAway": 0.000100001692772, "ACTIONTYPE": 3, "Type_Statt": "Station hydrologique", "Nom1": null, "Name_Ar": "????", "Nom_Ar": "????", "Nom_type_a": "????", "Nom_comp_a": "???? ????", "Type_ar": "????", "NEAR_FID": 261, "NEAR_DIST": 0.0, "NEAR_X": 555352.1264, "NEAR_Y": 439889.0427 }, "geometry": { "type": "Point", "coordinates": [ -4.7951893, 34.5574506 ] } },
{ "type": "Feature", "properties": { "OBJECTID": 29, "indice": 8, "IRE": 1436, "IRE_pluvio": 4104, "DMS": 1967, "SBV_anci_1": 676, "X": 470343, "Y": 439901, "Type": 1, "Name": "Had Kourt", "Descript": "Station hydrologique", "BatchDone": 0, "SnapOn": 1, "SnapStatio": 1, "GridID": 11379, "HydroID": 1131, "IsDone": 0, "CompStatus": 1, "DistAway": 0.0, "ACTIONTYPE": 3, "Type_Statt": "Station hydrologique", "Nom1": null, "Name_Ar": "?? ????", "Nom_Ar": "?? ????", "Nom_type_a": "?? ????", "Nom_comp_a": "???? ?? ????", "Type_ar": "????", "NEAR_FID": 140, "NEAR_DIST": 0.0, "NEAR_X": 470342.6196, "NEAR_Y": 439901.2191 }, "geometry": { "type": "Point", "coordinates": [ -5.7215763, 34.5586008 ] } },
{ "type": "Feature", "properties": { "OBJECTID": 30, "indice": 9, "IRE": 1508, "IRE_pluvio": 4148, "DMS": 1996, "SBV_anci_1": 2780, "X": 552856, "Y": 432506, "Type": 1, "Name": "Hajria", "Descript": "Station hydrologique", "BatchDone": 0, "SnapOn": 1, "SnapStatio": 1, "GridID": 11380, "HydroID": 1132, "IsDone": 0, "CompStatus": 1, "DistAway": 0.0, "ACTIONTYPE": 3, "Type_Statt": "Station hydrologique", "Nom1": null, "Name_Ar": "?????", "Nom_Ar": "?????", "Nom_type_a": "?????", "Nom_comp_a": "???? ?????", "Type_ar": "????", "NEAR_FID": 272, "NEAR_DIST": 0.0, "NEAR_X": 552856.0016, "NEAR_Y": 432505.9272 }, "geometry": { "type": "Point", "coordinates": [ -4.822835, 34.4910145 ] } },
{ "type": "Feature", "properties": { "OBJECTID": 31, "indice": 0, "IRE": 0, "IRE_pluvio": 4626, "DMS": 1978, "SBV_anci_1": 0, "X": 553706, "Y": 459790, "Type": 0, "Name": "Jbel Outka", "Descript": "Poste Pluviométrique", "BatchDone": 1, "SnapOn": 0, "SnapStatio": 0, "GridID": 11381, "HydroID": 1132, "IsDone": 1, "CompStatus": -919, "DistAway": 0.0, "ACTIONTYPE": 3, "Type_Statt": "Poste Pluviométrique", "Nom1": null, "Name_Ar": "??? ????", "Nom_Ar": "??? ????", "Nom_type_a": "??? ????", "Nom_comp_a": "???? ??? ????", "Type_ar": "????", "NEAR_FID": 263, "NEAR_DIST": 0.0, "NEAR_X": 553705.833, "NEAR_Y": 459790.3868 }, "geometry": { "type": "Point", "coordinates": [ -4.811907, 34.7369464 ] } },
{ "type": "Feature", "properties": { "OBJECTID": 32, "indice": 9, "IRE": 1826, "IRE_pluvio": 4692, "DMS": 2014, "SBV_anci_1": 0, "X": 489893, "Y": 429322, "Type": 1, "Name": "Jorf El Malha", "Descript": "Station hydrologique", "BatchDone": 0, "SnapOn": 1, "SnapStatio": 1, "GridID": 11382, "HydroID": 1132, "IsDone": 0, "CompStatus": 1, "DistAway": 0.0, "ACTIONTYPE": 3, "Type_Statt": "Station hydrologique", "Nom1": null, "Name_Ar": "??? ??????", "Nom_Ar": "??? ??????", "Nom_type_a": "??? ??????", "Nom_comp_a": "???? ??? ??????", "Type_ar": "????", "NEAR_FID": 135, "NEAR_DIST": 0.0, "NEAR_X": 489893.2678, "NEAR_Y": 429321.6868 }, "geometry": { "type": "Point", "coordinates": [ -5.5084034, 34.4635805 ] } },
{ "type": "Feature", "properties": { "OBJECTID": 33, "indice": 0, "IRE": 0, "IRE_pluvio": 0, "DMS": 1970, "SBV_anci_1": 7300, "X": 473631, "Y": 426920, "Type": 1, "Name": "Khenichet", "Descript": "Station hydrologique", "BatchDone": 0, "SnapOn": 1, "SnapStatio": 1, "GridID": 11383, "HydroID": 1132, "IsDone": 0, "CompStatus": 1, "DistAway": 0.0, "ACTIONTYPE": 3, "Type_Statt": "Station hydrologique", "Nom1": null, "Name_Ar": "????????", "Nom_Ar": "????????", "Nom_type_a": "????????", "Nom_comp_a": "???? ????????", "Type_ar": "????", "NEAR_FID": 137, "NEAR_DIST": 0.0, "NEAR_X": 473630.7296, "NEAR_Y": 426920.2212 }, "geometry": { "type": "Point", "coordinates": [ -5.6853576, 34.441652 ] } },
{ "type": "Feature", "properties": { "OBJECTID": 34, "indice": 0, "IRE": 0, "IRE_pluvio": 0, "DMS": 1984, "SBV_anci_1": 149, "X": 435073, "Y": 472620, "Type": 1, "Name": "Lalla Mimouna", "Descript": "Station hydrologique", "BatchDone": 0, "SnapOn": 1, "SnapStatio": 1, "GridID": 11384, "HydroID": 1132, "IsDone": 0, "CompStatus": 1, "DistAway": 0.0, "ACTIONTYPE": 3, "Type_Statt": "Station hydrologique", "Nom1": null, "Name_Ar": "???? ??????", "Nom_Ar": "???? ??????", "Nom_type_a": "???? ??????", "Nom_comp_a": "???? ???? ??????", "Type_ar": "????", "NEAR_FID": 121, "NEAR_DIST": 0.0, "NEAR_X": 435072.5537, "NEAR_Y": 472619.9396 }, "geometry": { "type": "Point", "coordinates": [ -6.108344, 34.8519835 ] } },
{ "type": "Feature", "properties": { "OBJECTID": 35, "indice": 0, "IRE": 0, "IRE_pluvio": 0, "DMS": 1970, "SBV_anci_1": 372, "X": 434636, "Y": 459051, "Type": 1, "Name": "My Ali Cherif", "Descript": "Station hydrologique", "BatchDone": 0, "SnapOn": 1, "SnapStatio": 1, "GridID": 11385, "HydroID": 1132, "IsDone": 0, "CompStatus": 1, "DistAway": 0.0, "ACTIONTYPE": 3, "Type_Statt": "Station hydrologique", "Nom1": null, "Name_Ar": "????? ??? ??????", "Nom_Ar": "????? ??? ??????", "Nom_type_a": "????? ??? ??????", "Nom_comp_a": null, "Type_ar": "????", "NEAR_FID": 118, "NEAR_DIST": 0.0, "NEAR_X": 434642.2103, "NEAR_Y": 459050.861 }, "geometry": { "type": "Point", "coordinates": [ -6.1120373, 34.7296429 ] } },
{ "type": "Feature", "properties": { "OBJECTID": 36, "indice": 0, "IRE": 0, "IRE_pluvio": 0, "DMS": 1994, "SBV_anci_1": 150, "X": 491371, "Y": 299806, "Type": 1, "Name": "Oued ifrane", "Descript": "Station hydrologique", "BatchDone": 0, "SnapOn": 1, "SnapStatio": 1, "GridID": 11386, "HydroID": 1132, "IsDone": 0, "CompStatus": 1, "DistAway": 0.0, "ACTIONTYPE": 3, "Type_Statt": "Station hydrologique", "Nom1": null, "Name_Ar": "??? ?????", "Nom_Ar": "??? ?????", "Nom_type_a": "??? ?????", "Nom_comp_a": "???? ??? ?????", "Type_ar": "????", "NEAR_FID": 304, "NEAR_DIST": 0.0, "NEAR_X": 491370.7393, "NEAR_Y": 299805.5382 }, "geometry": { "type": "Point", "coordinates": [ -5.4910901, 33.2955938 ] } },
{ "type": "Feature", "properties": { "OBJECTID": 37, "indice": 0, "IRE": 0, "IRE_pluvio": 0, "DMS": 1977, "SBV_anci_1": 0, "X": 498869, "Y": 460212, "Type": 0, "Name": "Oulad Yaacoub", "Descript": "Poste Pluviométrique", "BatchDone": 1, "SnapOn": 0, "SnapStatio": 0, "GridID": 11387, "HydroID": 1132, "IsDone": 1, "CompStatus": -919, "DistAway": 0.0, "ACTIONTYPE": 3, "Type_Statt": "Poste Pluviométrique", "Nom1": null, "Name_Ar": "???? ?????", "Nom_Ar": "????? ?????", "Nom_type_a": "????? ?????", "Nom_comp_a": "???? ????? ?????", "Type_ar": "????", "NEAR_FID": 64, "NEAR_DIST": 0.0, "NEAR_X": 498869.0428, "NEAR_Y": 460211.9082 }, "geometry": { "type": "Point", "coordinates": [ -5.4107317, 34.742114 ] } },
{ "type": "Feature", "properties": { "OBJECTID": 38, "indice": 0, "IRE": 0, "IRE_pluvio": 0, "DMS": 1980, "SBV_anci_1": 2500, "X": 456309, "Y": 338027, "Type": 2, "Name": "Bge Ouljet Soltane", "Descript": "Barrage", "BatchDone": 0, "SnapOn": 1, "SnapStatio": 1, "GridID": 11388, "HydroID": 1132, "IsDone": 0, "CompStatus": 1, "DistAway": 0.0, "ACTIONTYPE": 3, "Type_Statt": "Barrage", "Nom1": null, "Name_Ar": "???? ???????", "Nom_Ar": "???? ???????", "Nom_type_a": "?? ???? ???????", "Nom_comp_a": "?? ???? ???????", "Type_ar": "??", "NEAR_FID": 19, "NEAR_DIST": 0.0, "NEAR_X": 456308.7481, "NEAR_Y": 338027.3117 }, "geometry": { "type": "Point", "coordinates": [ -5.8695147, 33.6394793 ] } },
{ "type": "Feature", "properties": { "OBJECTID": 39, "indice": 0, "IRE": 0, "IRE_pluvio": 0, "DMS": 1978, "SBV_anci_1": 205, "X": 530743, "Y": 285281, "Type": 1, "Name": "Pont Ait Aissa", "Descript": "Station hydrologique", "BatchDone": 0, "SnapOn": 1, "SnapStatio": 1, "GridID": 11389, "HydroID": 1132, "IsDone": 0, "CompStatus": 1, "DistAway": 0.00022360225290099999, "ACTIONTYPE": 3, "Type_Statt": "Station hydrologique", "Nom1": null, "Name_Ar": "??? ????", "Nom_Ar": "??? ????", "Nom_type_a": "??? ????", "Nom_comp_a": "???? ??? ????", "Type_ar": "????", "NEAR_FID": 49, "NEAR_DIST": 0.0, "NEAR_X": 530743.1865, "NEAR_Y": 285280.6496 }, "geometry": { "type": "Point", "coordinates": [ -5.0687094, 33.1641743 ] } },
{ "type": "Feature", "properties": { "OBJECTID": 40, "indice": 0, "IRE": 0, "IRE_pluvio": 0, "DMS": 1958, "SBV_anci_1": 3474, "X": 581450, "Y": 341756, "Type": 2, "Name": "Bge M'Dez", "Descript": "Barrage", "BatchDone": 0, "SnapOn": 1, "SnapStatio": 1, "GridID": 11390, "HydroID": 1133, "IsDone": 0, "CompStatus": 1, "DistAway": 0.0, "ACTIONTYPE": 3, "Type_Statt": "Barrage en cours", "Nom1": null, "Name_Ar": "????", "Nom_Ar": "????", "Nom_type_a": "?? ????", "Nom_comp_a": "?? ????", "Type_ar": "??", "NEAR_FID": 10, "NEAR_DIST": 0.0, "NEAR_X": 581450.2258, "NEAR_Y": 341756.1923 }, "geometry": { "type": "Point", "coordinates": [ -4.5198184, 33.6708896 ] } },
{ "type": "Feature", "properties": { "OBJECTID": 41, "indice": 0, "IRE": 0, "IRE_pluvio": 0, "DMS": 1977, "SBV_anci_1": 90, "X": 496662, "Y": 458151, "Type": 1, "Name": "Kharrouba", "Descript": "Station hydrologique", "BatchDone": 0, "SnapOn": 1, "SnapStatio": 1, "GridID": 11391, "HydroID": 1133, "IsDone": 0, "CompStatus": 1, "DistAway": 0.0, "ACTIONTYPE": 3, "Type_Statt": "Station hydrologique", "Nom1": null, "Name_Ar": "?????", "Nom_Ar": "?????", "Nom_type_a": "?????", "Nom_comp_a": "???? ?????", "Type_ar": "????", "NEAR_FID": 155, "NEAR_DIST": 0.0, "NEAR_X": 496661.6903, "NEAR_Y": 458150.9097 }, "geometry": { "type": "Point", "coordinates": [ -5.4348301, 34.7235304 ] } },
{ "type": "Feature", "properties": { "OBJECTID": 42, "indice": 0, "IRE": 0, "IRE_pluvio": 0, "DMS": 1999, "SBV_anci_1": 490, "X": 542092, "Y": 467453, "Type": 1, "Name": "Ratba", "Descript": "Station hydrologique", "BatchDone": 0, "SnapOn": 1, "SnapStatio": 1, "GridID": 11392, "HydroID": 1133, "IsDone": 0, "CompStatus": 1, "DistAway": 0.0, "ACTIONTYPE": 3, "Type_Statt": "Station hydrologique", "Nom1": null, "Name_Ar": "??????", "Nom_Ar": "??????", "Nom_type_a": "??????", "Nom_comp_a": "???? ??????", "Type_ar": "????", "NEAR_FID": 266, "NEAR_DIST": 0.0, "NEAR_X": 542091.9438, "NEAR_Y": 467453.0472 }, "geometry": { "type": "Point", "coordinates": [ -4.9383599, 34.8065472 ] } },
{ "type": "Feature", "properties": { "OBJECTID": 43, "indice": 0, "IRE": 0, "IRE_pluvio": 0, "DMS": 1958, "SBV_anci_1": 13000, "X": 523216, "Y": 412203, "Type": 1, "Name": "Route 26", "Descript": "Station hydrologique", "BatchDone": 0, "SnapOn": 1, "SnapStatio": 1, "GridID": 11393, "HydroID": 1133, "IsDone": 0, "CompStatus": 1, "DistAway": 0.0, "ACTIONTYPE": 3, "Type_Statt": "Station hydrologique", "Nom1": null, "Name_Ar": "????? ???", "Nom_Ar": "????? ???", "Nom_type_a": "????? ???", "Nom_comp_a": "???? ????? ???", "Type_ar": "????", "NEAR_FID": 271, "NEAR_DIST": 0.0, "NEAR_X": 523210.8693, "NEAR_Y": 412202.6143 }, "geometry": { "type": "Point", "coordinates": [ -5.1461775, 34.3090179 ] } },
{ "type": "Feature", "properties": { "OBJECTID": 44, "indice": 0, "IRE": 0, "IRE_pluvio": 0, "DMS": 1962, "SBV_anci_1": 1857, "X": 466099, "Y": 410820, "Type": 1, "Name": "Souk El Had", "Descript": "Station hydrologique", "BatchDone": 0, "SnapOn": 1, "SnapStatio": 1, "GridID": 11394, "HydroID": 1133, "IsDone": 0, "CompStatus": 1, "DistAway": 0.0, "ACTIONTYPE": 3, "Type_Statt": "Station hydrologique", "Nom1": null, "Name_Ar": "??? ????", "Nom_Ar": "??? ????", "Nom_type_a": "??? ????", "Nom_comp_a": "???? ??? ????", "Type_ar": "????", "NEAR_FID": 160, "NEAR_DIST": 0.0, "NEAR_X": 466103.2905, "NEAR_Y": 410819.5261 }, "geometry": { "type": "Point", "coordinates": [ -5.7666608, 34.2962687 ] } },
{ "type": "Feature", "properties": { "OBJECTID": 45, "indice": 0, "IRE": 0, "IRE_pluvio": 0, "DMS": 1978, "SBV_anci_1": 861, "X": 524027, "Y": 461717, "Type": 1, "Name": "Tabouda", "Descript": "Station hydrologique", "BatchDone": 0, "SnapOn": 1, "SnapStatio": 1, "GridID": 11395, "HydroID": 1133, "IsDone": 0, "CompStatus": 1, "DistAway": 0.0, "ACTIONTYPE": 3, "Type_Statt": "Station hydrologique", "Nom1": null, "Name_Ar": "?????", "Nom_Ar": "?????", "Nom_type_a": "?????", "Nom_comp_a": "???? ?????", "Type_ar": "????", "NEAR_FID": 269, "NEAR_DIST": 0.0, "NEAR_X": 524025.9464, "NEAR_Y": 461716.7085 }, "geometry": { "type": "Point", "coordinates": [ -5.1359593, 34.7554039 ] } },
{ "type": "Feature", "properties": { "OBJECTID": 46, "indice": 0, "IRE": 0, "IRE_pluvio": 0, "DMS": 1998, "SBV_anci_1": 412, "X": 575143, "Y": 454592, "Type": 1, "Name": "Taghzout", "Descript": "Station hydrologique", "BatchDone": 0, "SnapOn": 1, "SnapStatio": 1, "GridID": 11396, "HydroID": 1133, "IsDone": 0, "CompStatus": 1, "DistAway": 0.0, "ACTIONTYPE": 3, "Type_Statt": "Station hydrologique", "Nom1": null, "Name_Ar": "?????", "Nom_Ar": "?????", "Nom_type_a": "?????", "Nom_comp_a": "???? ?????", "Type_ar": "????", "NEAR_FID": 347, "NEAR_DIST": 0.0, "NEAR_X": 575142.7848, "NEAR_Y": 454592.2618 }, "geometry": { "type": "Point", "coordinates": [ -4.5782683, 34.6887818 ] } },
{ "type": "Feature", "properties": { "OBJECTID": 47, "indice": 0, "IRE": 0, "IRE_pluvio": 0, "DMS": 1960, "SBV_anci_1": 791, "X": 576162, "Y": 413028, "Type": 1, "Name": "Tissa", "Descript": "Station hydrologique", "BatchDone": 0, "SnapOn": 1, "SnapStatio": 1, "GridID": 11397, "HydroID": 1133, "IsDone": 0, "CompStatus": 1, "DistAway": 0.0, "ACTIONTYPE": 3, "Type_Statt": "Station hydrologique", "Nom1": null, "Name_Ar": "????", "Nom_Ar": "????", "Nom_type_a": "????", "Nom_comp_a": "???? ????", "Type_ar": "????", "NEAR_FID": 284, "NEAR_DIST": 0.0, "NEAR_X": 576162.407, "NEAR_Y": 413028.306 }, "geometry": { "type": "Point", "coordinates": [ -4.5707453, 34.3139852 ] } },
{ "type": "Feature", "properties": { "OBJECTID": 48, "indice": 0, "IRE": 0, "IRE_pluvio": 0, "DMS": 1998, "SBV_anci_1": 40, "X": 599586, "Y": 374794, "Type": 1, "Name": "Zrarda", "Descript": "Station hydrologique", "BatchDone": 0, "SnapOn": 1, "SnapStatio": 1, "GridID": 11398, "HydroID": 1133, "IsDone": 0, "CompStatus": 1, "DistAway": 0.0, "ACTIONTYPE": 3, "Type_Statt": "Station hydrologique", "Nom1": null, "Name_Ar": "????????", "Nom_Ar": "????????", "Nom_type_a": "????????", "Nom_comp_a": "???? ????????", "Type_ar": "????", "NEAR_FID": 330, "NEAR_DIST": 0.0, "NEAR_X": 599586.4044, "NEAR_Y": 374794.3154 }, "geometry": { "type": "Point", "coordinates": [ -4.3205145, 33.9672954 ] } },
{ "type": "Feature", "properties": { "OBJECTID": 49, "indice": 0, "IRE": 0, "IRE_pluvio": 0, "DMS": 1966, "SBV_anci_1": 7870, "X": 543376, "Y": 399736, "Type": 1, "Name": "Dar El Arsa", "Descript": "Station hydrologique", "BatchDone": 0, "SnapOn": 1, "SnapStatio": 1, "GridID": 11399, "HydroID": 1133, "IsDone": 0, "CompStatus": 1, "DistAway": 0.0, "ACTIONTYPE": 3, "Type_Statt": "Station hydrologique", "Nom1": null, "Name_Ar": "??? ??????", "Nom_Ar": "??? ??????", "Nom_type_a": "??? ??????", "Nom_comp_a": "???? ??? ??????", "Type_ar": "????", "NEAR_FID": 374, "NEAR_DIST": 0.0, "NEAR_X": 543375.7254, "NEAR_Y": 399736.2113 }, "geometry": { "type": "Point", "coordinates": [ -4.9276796, 34.1959763 ] } },
{ "type": "Feature", "properties": { "OBJECTID": 50, "indice": 22, "IRE": 894, "IRE_pluvio": 516, "DMS": 0, "SBV_anci_1": 0, "X": 580129, "Y": 349073, "Type": 1, "Name": "Ain Sebou", "Descript": "Station hydrologique", "BatchDone": 0, "SnapOn": 1, "SnapStatio": 1, "GridID": 11400, "HydroID": 1134, "IsDone": 0, "CompStatus": 1, "DistAway": 0.0, "ACTIONTYPE": 3, "Type_Statt": "Station hydrologique", "Nom1": null, "Name_Ar": "??? ???", "Nom_Ar": "??? ???", "Nom_type_a": "??? ???", "Nom_comp_a": "???? ??? ???", "Type_ar": "????", "NEAR_FID": 14, "NEAR_DIST": 0.0, "NEAR_X": 580128.5423, "NEAR_Y": 349073.4913 }, "geometry": { "type": "Point", "coordinates": [ -4.533419, 33.7369805 ] } },
{ "type": "Feature", "properties": { "OBJECTID": 51, "indice": 0, "IRE": 0, "IRE_pluvio": 0, "DMS": 0, "SBV_anci_1": 0, "X": 0, "Y": 376975, "Type": 1, "Name": "Ain El Ouali", "Descript": "Station hydrologique", "BatchDone": 0, "SnapOn": 1, "SnapStatio": 0, "GridID": 11404, "HydroID": 1134, "IsDone": 0, "CompStatus": 1, "DistAway": 0.0, "ACTIONTYPE": 3, "Type_Statt": "Station hydrologique", "Nom1": null, "Name_Ar": "??? ??????", "Nom_Ar": "??? ??????", "Nom_type_a": "??? ??????", "Nom_comp_a": "???? ??? ??????", "Type_ar": "????", "NEAR_FID": 246, "NEAR_DIST": 0.0, "NEAR_X": 555694.7216, "NEAR_Y": 376974.8132 }, "geometry": { "type": "Point", "coordinates": [ -4.795428, 33.9901523 ] } },
{ "type": "Feature", "properties": { "OBJECTID": 52, "indice": 0, "IRE": 0, "IRE_pluvio": 0, "DMS": 0, "SBV_anci_1": 0, "X": 0, "Y": 359606, "Type": 1, "Name": "Azzaba", "Descript": "Station hydrologique", "BatchDone": 0, "SnapOn": 1, "SnapStatio": 0, "GridID": 11405, "HydroID": 1134, "IsDone": 0, "CompStatus": 1, "DistAway": 0.0, "ACTIONTYPE": 3, "Type_Statt": "Station hydrologique", "Nom1": null, "Name_Ar": "?????", "Nom_Ar": "?????", "Nom_type_a": "?????", "Nom_comp_a": "???? ?????", "Type_ar": "????", "NEAR_FID": 260, "NEAR_DIST": 0.0, "NEAR_X": 569627.6243, "NEAR_Y": 359605.6641 }, "geometry": { "type": "Point", "coordinates": [ -4.6459498, 33.8326986 ] } },
{ "type": "Feature", "properties": { "OBJECTID": 53, "indice": 0, "IRE": 0, "IRE_pluvio": 0, "DMS": 0, "SBV_anci_1": 0, "X": 0, "Y": 320778, "Type": 1, "Name": "Taghrout", "Descript": "Station hydrologique", "BatchDone": 0, "SnapOn": 1, "SnapStatio": 0, "GridID": 11406, "HydroID": 1134, "IsDone": 0, "CompStatus": 1, "DistAway": 0.0, "ACTIONTYPE": 3, "Type_Statt": "Station hydrologique", "Nom1": null, "Name_Ar": "??????", "Nom_Ar": "??????", "Nom_type_a": "??????", "Nom_comp_a": "???? ??????", "Type_ar": "????", "NEAR_FID": 224, "NEAR_DIST": 0.0, "NEAR_X": 573564.9435000001, "NEAR_Y": 320778.4204 }, "geometry": { "type": "Point", "coordinates": [ -4.6065918, 33.4822647 ] } },
{ "type": "Feature", "properties": { "OBJECTID": 54, "indice": 9, "IRE": 1217, "IRE_pluvio": 0, "DMS": 0, "SBV_anci_1": 0, "X": 0, "Y": 0, "Type": 0, "Name": "Ain Aicha", "Descript": "Station hydrologique", "BatchDone": 0, "SnapOn": 0, "SnapStatio": 0, "GridID": 0, "HydroID": 0, "IsDone": 0, "CompStatus": 0, "DistAway": 0.0, "ACTIONTYPE": 0, "Type_Statt": "Station hydrologique", "Nom1": null, "Name_Ar": "??? ????", "Nom_Ar": "??? ????", "Nom_type_a": "??? ????", "Nom_comp_a": "???? ??? ????", "Type_ar": "????", "NEAR_FID": 375, "NEAR_DIST": 0.0, "NEAR_X": 564823.5756, "NEAR_Y": 429054.0923 }, "geometry": { "type": "Point", "coordinates": [ -4.6927781, 34.4592292 ] } },
{ "type": "Feature", "properties": { "OBJECTID": 150, "indice": 0, "IRE": 0, "IRE_pluvio": 0, "DMS": 0, "SBV_anci_1": 0, "X": 0, "Y": 0, "Type": 0, "Name": null, "Descript": null, "BatchDone": 0, "SnapOn": 0, "SnapStatio": 0, "GridID": 0, "HydroID": 0, "IsDone": 0, "CompStatus": 0, "DistAway": 0.0, "ACTIONTYPE": 0, "Type_Statt": "Station hydrologique", "Nom1": "Sid El Mokhfi", "Name_Ar": null, "Nom_Ar": null, "Nom_type_a": null, "Nom_comp_a": null, "Type_ar": null, "NEAR_FID": 0, "NEAR_DIST": 0.0, "NEAR_X": 0.0, "NEAR_Y": 0.0 }, "geometry": { "type": "Point", "coordinates": [ -5.3028597, 33.4055616 ] } },
{ "type": "Feature", "properties": { "OBJECTID": 150, "indice": 0, "IRE": 0, "IRE_pluvio": 0, "DMS": 0, "SBV_anci_1": 0, "X": 0, "Y": 0, "Type": 0, "Name": null, "Descript": null, "BatchDone": 0, "SnapOn": 0, "SnapStatio": 0, "GridID": 0, "HydroID": 0, "IsDone": 0, "CompStatus": 0, "DistAway": 0.0, "ACTIONTYPE": 0, "Type_Statt": "Station hydrologique", "Nom1": null, "Name_Ar": null, "Nom_Ar": null, "Nom_type_a": null, "Nom_comp_a": null, "Type_ar": null, "NEAR_FID": 0, "NEAR_DIST": 0.0, "NEAR_X": 0.0, "NEAR_Y": 0.0 }, "geometry": { "type": "Point", "coordinates": [ -5.3017467, 33.4067656 ] } },
{ "type": "Feature", "properties": { "OBJECTID": 150, "indice": 0, "IRE": 0, "IRE_pluvio": 0, "DMS": 0, "SBV_anci_1": 0, "X": 0, "Y": 0, "Type": 0, "Name": "Sid El Mokhfi", "Descript": "Station hydrologique", "BatchDone": 0, "SnapOn": 0, "SnapStatio": 0, "GridID": 0, "HydroID": 0, "IsDone": 0, "CompStatus": 0, "DistAway": 0.0, "ACTIONTYPE": 0, "Type_Statt": "Station hydrologique", "Nom1": null, "Name_Ar": null, "Nom_Ar": null, "Nom_type_a": null, "Nom_comp_a": null, "Type_ar": null, "NEAR_FID": 0, "NEAR_DIST": 0.0, "NEAR_X": 0.0, "NEAR_Y": 0.0 }, "geometry": { "type": "Point", "coordinates": [ -5.3017453, 33.4080357 ] } }
]
}
